*******************************************************************************
JPL/HORIZONS                  6 Hebe (A847 NA)             2020-Jun-18 11:57:54
Rec #:       6 (+COV) Soln.date: 2020-May-20_00:55:48   # obs: 6085 (1848-2020)
 
IAU76/J2000 helio. ecliptic osc. elements (au, days, deg., period=Julian yrs):
 
  EPOCH=  2450694.5 ! 1997-Sep-03.00 (TDB)         Residual RMS= .27326
   EC= .201723812505008    QR= 1.935847888127365   TP= 2451369.0272901715
   OM= 138.8907523724716   W=  239.0585685395954   IN= 14.77122904200239
   A= 2.425035242754888    MA= 183.9538559063179   ADIST= 2.914222597382412
   PER= 3.77646            N= .260991871           ANGMOM= .026237315
   DAN= 2.59556            DDN= 2.10774            L= 17.093551
   B= -12.6313805          MOID= .97616899         TP= 1999-Jul-09.5272901715
 
Asteroid physical parameters (km, seconds, rotational period in hours):
   GM= n.a.                RAD= 92.59              ROTPER= 7.2745
   H= 5.8                  G= .240                 B-V= .822
                           ALBEDO= .2679           STYP= S
 
ASTEROID comments: 
1: soln ref.= JPL#89, OCC=0
2: source=ORB
*******************************************************************************
 
 
*******************************************************************************
Ephemeris / WWW_USER Thu Jun 18 11:57:54 2020 Pasadena, USA      / Horizons
*******************************************************************************
Target body name: 6 Hebe (A847 NA)                {source: JPL#89}
Center body name: Solar System Barycenter (0)     {source: DE431}
Center-site name: BODY CENTER
*******************************************************************************
Start time      : A.D. 2000-Jun-05 00:00:00.0000 TDB
Stop  time      : A.D. 2040-May-26 00:00:00.0000 TDB
Step-size       : 14400 minutes
*******************************************************************************
Center geodetic : 0.00000000,0.00000000,0.0000000 {E-lon(deg),Lat(deg),Alt(km)}
Center cylindric: 0.00000000,0.00000000,0.0000000 {E-lon(deg),Dxy(km),Dz(km)}
Center radii    : (undefined)                                                  
Small perturbers: Yes                             {source: SB431-N16}
Output units    : AU-D
Output type     : GEOMETRIC cartesian states
Output format   : 3 (position, velocity, LT, range, range-rate)
Reference frame : Ecliptic of J2000.0
*******************************************************************************
Initial IAU76/J2000 heliocentric ecliptic osculating elements (au, days, deg.):
  EPOCH=  2450694.5 ! 1997-Sep-03.00 (TDB)         Residual RMS= .27326        
   EC= .201723812505008    QR= 1.935847888127365   TP= 2451369.0272901715      
   OM= 138.8907523724716   W=  239.0585685395954   IN= 14.77122904200239       
  Equivalent ICRF heliocentric equatorial cartesian coordinates (au, au/d):
   X=-2.670807768978615E+00  Y=-1.143474313476828E+00  Z= 2.173610690025279E-01
  VX= 3.363440557054074E-03 VY=-8.025884830819495E-03 VZ=-2.320814697367879E-03
Asteroid physical parameters (km, seconds, rotational period in hours):        
   GM= n.a.                RAD= 92.59              ROTPER= 7.2745              
   H= 5.8                  G= .240                 B-V= .822                   
                           ALBEDO= .2679           STYP= S                     
*******************************************************************************
JDTDB
   X     Y     Z
   VX    VY    VZ
   LT    RG    RR
*******************************************************************************
$$SOE
2452750.500000000 = A.D. 2003-Apr-21 00:00:00.0000 TDB 
 X = 1.798385193131488E+00 Y = 5.813977215882807E-01 Z =-4.278704527879529E-01
 VX=-4.486422777897809E-03 VY= 1.266596407074009E-02 VZ=-1.733811688539641E-03
 LT= 1.119212264481146E-02 RG= 1.937855964180927E+00 RR= 1.934774898938574E-05
2452760.500000000 = A.D. 2003-May-01 00:00:00.0000 TDB 
 X = 1.749898103556275E+00 Y = 7.067806677558996E-01 Z =-4.443266930644618E-01
 VX=-5.207473461705567E-03 VY= 1.240221341518751E-02 VZ=-1.556377721863114E-03
 LT= 1.119781780222805E-02 RG= 1.938842050119845E+00 RR= 1.777539901058664E-04
2452770.500000000 = A.D. 2003-May-11 00:00:00.0000 TDB 
 X = 1.694313713108273E+00 Y = 8.292772228503720E-01 Z =-4.589788333013191E-01
 VX=-5.905137803924499E-03 VY= 1.208905069541408E-02 VZ=-1.373193352051624E-03
 LT= 1.121263186682129E-02 RG= 1.941407025892255E+00 RR= 3.349555773498388E-04
2452780.500000000 = A.D. 2003-May-21 00:00:00.0000 TDB 
 X = 1.631887679124671E+00 Y = 9.484050866945068E-01 Z =-4.717754960893681E-01
 VX=-6.575115614687697E-03 VY= 1.172892562333867E-02 VZ=-1.185490732111318E-03
 LT= 1.123646606326950E-02 RG= 1.945533789081365E+00 RR= 4.899467929097696E-04
2452790.500000000 = A.D. 2003-May-31 00:00:00.0000 TDB 
 X = 1.562916782591346E+00 Y = 1.063708922668235E+00 Z =-4.826777892815053E-01
 VX=-7.213493936041415E-03 VY= 1.132477056509604E-02 VZ=-9.945306459411283E-04
 LT= 1.126916465403230E-02 RG= 1.951195374567956E+00 RR= 6.417638302038558E-04
2452800.500000000 = A.D. 2003-Jun-10 00:00:00.0000 TDB 
 X = 1.487734732478282E+00 Y = 1.174764845884799E+00 Z =-4.916594692007618E-01
 VX=-7.816809232809831E-03 VY= 1.087993104508807E-02 VZ=-8.015779579480094E-04
 LT= 1.131051786355395E-02 RG= 1.958355460840482E+00 RR= 7.895018799478913E-04
2452810.500000000 = A.D. 2003-Jun-20 00:00:00.0000 TDB 
 X = 1.406707425332979E+00 Y = 1.281184167624372E+00 Z =-4.987068620377471E-01
 VX=-8.382093903449232E-03 VY= 1.039808709659330E-02 VZ=-6.078779569894478E-04
 LT= 1.136026572114462E-02 RG= 1.966969035369350E+00 RR= 9.323297435651066E-04
2452820.500000000 = A.D. 2003-Jun-30 00:00:00.0000 TDB 
 X = 1.320227822621869E+00 Y = 1.382616323145424E+00 Z =-5.038185568718158E-01
 VX=-8.906906138948187E-03 VY= 9.883169236286184E-03 VZ=-4.146344770731441E-04
 LT= 1.141810266261544E-02 RG= 1.976983191355316E+00 RR= 1.069501433037386E-03
2452830.500000000 = A.D. 2003-Jul-10 00:00:00.0000 TDB 
 X = 1.228710613264961E+00 Y = 1.478750948502902E+00 Z =-5.070048921154795E-01
 VX=-9.389343095167851E-03 VY= 9.339272915691674E-03 VZ=-2.229905794032835E-04
 LT= 1.148368270930926E-02 RG= 1.988338024450877E+00 RR= 1.200364553255471E-03
2452840.500000000 = A.D. 2003-Jul-20 00:00:00.0000 TDB 
 X = 1.132586824688148E+00 Y = 1.569319109356969E+00 Z =-5.082872641931585E-01
 VX=-9.828038217119988E-03 VY= 8.770575038468823E-03 VZ=-3.401240410511874E-05
 LT= 1.155662503874047E-02 RG= 2.000967597286647E+00 RR= 1.324365515014511E-03
2452850.500000000 = A.D. 2003-Jul-30 00:00:00.0000 TDB 
 X = 1.032298533963351E+00 Y = 1.654093718453299E+00 Z =-5.076972923920493E-01
 VX=-1.022214420028364E-02 VY= 8.181255618639036E-03 VZ= 1.513234093418046E-04
 LT= 1.163651977108801E-02 RG= 2.014800941371569E+00 RR= 1.441051823592035E-03
2452860.500000000 = A.D. 2003-Aug-09 00:00:00.0000 TDB 
 X = 9.282938121798140E-01 Y = 1.732889205173128E+00 Z =-5.052758760110840E-01
 VX=-1.057130380619506E-02 VY= 7.575426874094242E-03 VZ= 3.321387006130818E-04
 LT= 1.172293380457625E-02 RG= 2.029763067457790E+00 RR= 1.550071494681241E-03
2452870.500000000 = A.D. 2003-Aug-19 00:00:00.0000 TDB 
 X = 8.210220105742029E-01 Y = 1.805560520843474E+00 Z =-5.010721791999883E-01
 VX=-1.087561113151551E-02 VY= 6.957071529556736E-03 VZ= 5.076592994886181E-04
 LT= 1.181541653997948E-02 RG= 2.045775956707891E+00 RR= 1.651169872473061E-03
2452880.500000000 = A.D. 2003-Aug-29 00:00:00.0000 TDB 
 X = 7.109294707760304E-01 Y = 1.872001577975828E+00 Z =-4.951425771164309E-01
 VX=-1.113556595183529E-02 VY= 6.329991420419768E-03 VZ= 6.772173016714127E-04
 LT= 1.191350535766711E-02 RG= 2.062759509015866E+00 RR= 1.744184323439866E-03
2452890.500000000 = A.D. 2003-Sep-08 00:00:00.0000 TDB 
 X = 5.984557155214160E-01 Y = 1.932143228993475E+00 Z =-4.875495940511898E-01
 VX=-1.135202369707057E-02 VY= 5.697766803318665E-03 VZ= 8.402504670068728E-04
 LT= 1.201673073861157E-02 RG= 2.080632429682154E+00 RR= 1.829037295001862E-03
2452900.500000000 = A.D. 2003-Sep-18 00:00:00.0000 TDB 
 X = 4.840301515404087E-01 Y = 1.985950891122177E+00 Z =-4.783608601578702E-01
 VX=-1.152614341028239E-02 VY= 5.063726209770991E-03 VZ= 9.962991775630411E-04
 LT= 1.212462094892441E-02 RG= 2.099313040515915E+00 RR= 1.905728220790325E-03
2452910.500000000 = A.D. 2003-Sep-28 00:00:00.0000 TDB 
 X = 3.680692942681534E-01 Y = 2.033421920152110E+00 Z =-4.676481088387491E-01
 VX=-1.165933573502431E-02 VY= 4.430926236251229E-03 VZ= 1.145001427185428E-03
 LT= 1.223670623467213E-02 RG= 2.118720006144892E+00 RR= 1.974324731711379E-03
2452920.500000000 = A.D. 2003-Oct-08 00:00:00.0000 TDB 
 X = 2.509745054595393E-01 Y = 2.074582828018824E+00 Z =-4.554862321252944E-01
 VX=-1.175321258886950E-02 VY= 3.802140335876277E-03 VZ= 1.286086311778552E-03
 LT= 1.235252249927589E-02 RG= 2.138772970737413E+00 RR= 2.034953585388618E-03
2452930.500000000 = A.D. 2003-Oct-18 00:00:00.0000 TDB 
 X = 1.331302201082761E-01 Y = 2.109486428316489E+00 Z =-4.419524066343448E-01
 VX=-1.180953982464623E-02 VY= 3.179855402674314E-03 VZ= 1.419366502108078E-03
 LT= 1.247161445543911E-02 RG= 2.159393103741750E+00 RR= 2.087791579218668E-03
2452940.500000000 = A.D. 2003-Oct-28 00:00:00.0000 TDB 
 X = 1.490262758925583E-02 Y = 2.138208981624975E+00 Z =-4.271252982068910E-01
 VX=-1.183019384201178E-02 VY= 2.566274957807709E-03 VZ= 1.544730087421193E-03
 LT= 1.259353825950838E-02 RG= 2.180503556011570E+00 RR= 2.133056778974533E-03
2452950.500000000 = A.D. 2003-Nov-07 00:00:00.0000 TDB 
 X =-1.033612353239682E-01 Y = 2.160847400545648E+00 Z =-4.110843498801099E-01
 VX=-1.181712266715048E-02 VY= 1.963327682349153E-03 VZ= 1.662132124797490E-03
 LT= 1.271786365467563E-02 RG= 2.202029830889885E+00 RR= 2.171000294671693E-03
